[{"OBJECT_NAME":"METOP-C","OBJECT_ID":"2018-087A","EPOCH":"2026-03-07T03:31:06.304800","MEAN_MOTION":14.21495941,"ECCENTRICITY":0.0002181,"INCLINATION":98.677,"RA_OF_ASC_NODE":127.5627,"ARG_OF_PERICENTER":103.5555,"MEAN_ANOMALY":256.5865,"EPHEMERIS_TYPE":0,"CLASSIFICATION_TYPE":"U","NORAD_CAT_ID":43689,"ELEMENT_SET_NO":999,"REV_AT_EPOCH":38033,"BSTAR":8.1404e-5,"MEAN_MOTION_DOT":1.35e-6,"MEAN_MOTION_DDOT":0},{"OBJECT_NAME":"GEO-KOMPSAT-2A","OBJECT_ID":"2018-100A","EPOCH":"2026-03-07T00:06:21.790368","MEAN_MOTION":1.00274944,"ECCENTRICITY":0.00015,"INCLINATION":0.0434,"RA_OF_ASC_NODE":343.1049,"ARG_OF_PERICENTER":66.964,"MEAN_ANOMALY":244.474,"EPHEMERIS_TYPE":0,"CLASSIFICATION_TYPE":"U","NORAD_CAT_ID":43823,"ELEMENT_SET_NO":999,"REV_AT_EPOCH":2660,"BSTAR":0,"MEAN_MOTION_DOT":-3.47e-6,"MEAN_MOTION_DDOT":0},{"OBJECT_NAME":"METEOR-M2 2","OBJECT_ID":"2019-038A","EPOCH":"2026-03-07T04:13:17.570784","MEAN_MOTION":14.24332488,"ECCENTRICITY":0.0001041,"INCLINATION":98.9085,"RA_OF_ASC_NODE":51.9926,"ARG_OF_PERICENTER":9.2004,"MEAN_ANOMALY":350.9193,"EPHEMERIS_TYPE":0,"CLASSIFICATION_TYPE":"U","NORAD_CAT_ID":44387,"ELEMENT_SET_NO":999,"REV_AT_EPOCH":34677,"BSTAR":6.3995e-5,"MEAN_MOTION_DOT":1.02e-6,"MEAN_MOTION_DDOT":0},{"OBJECT_NAME":"ARKTIKA-M 1","OBJECT_ID":"2021-016A","EPOCH":"2026-03-06T07:29:17.318400","MEAN_MOTION":2.00620361,"ECCENTRICITY":0.7244489,"INCLINATION":63.2063,"RA_OF_ASC_NODE":72.3539,"ARG_OF_PERICENTER":269.4705,"MEAN_ANOMALY":15.1937,"EPHEMERIS_TYPE":0,"CLASSIFICATION_TYPE":"U","NORAD_CAT_ID":47719,"ELEMENT_SET_NO":999,"REV_AT_EPOCH":3672,"BSTAR":0,"MEAN_MOTION_DOT":-1.42e-6,"MEAN_MOTION_DDOT":0},{"OBJECT_NAME":"FENGYUN 3E","OBJECT_ID":"2021-062A","EPOCH":"2026-03-07T05:39:23.901984","MEAN_MOTION":14.19893078,"ECCENTRICITY":0.000241,"INCLINATION":98.7511,"RA_OF_ASC_NODE":70.7765,"ARG_OF_PERICENTER":46.3682,"MEAN_ANOMALY":313.7694,"EPHEMERIS_TYPE":0,"CLASSIFICATION_TYPE":"U","NORAD_CAT_ID":49008,"ELEMENT_SET_NO":999,"REV_AT_EPOCH":24211,"BSTAR":-6.3767e-6,"MEAN_MOTION_DOT":-5.8e-7,"MEAN_MOTION_DDOT":0},{"OBJECT_NAME":"GOES 18","OBJECT_ID":"2022-021A","EPOCH":"2026-03-07T03:30:38.669760","MEAN_MOTION":1.00273288,"ECCENTRICITY":7.99e-5,"INCLINATION":0.0304,"RA_OF_ASC_NODE":62.9266,"ARG_OF_PERICENTER":346.4918,"MEAN_ANOMALY":31.0921,"EPHEMERIS_TYPE":0,"CLASSIFICATION_TYPE":"U","NORAD_CAT_ID":51850,"ELEMENT_SET_NO":999,"REV_AT_EPOCH":556,"BSTAR":0,"MEAN_MOTION_DOT":9.4e-7,"MEAN_MOTION_DDOT":0},{"OBJECT_NAME":"NOAA 21 (JPSS-2)","OBJECT_ID":"2022-150A","EPOCH":"2026-03-07T02:44:27.636864","MEAN_MOTION":14.19551369,"ECCENTRICITY":0.0002612,"INCLINATION":98.7552,"RA_OF_ASC_NODE":6.4096,"ARG_OF_PERICENTER":111.0586,"MEAN_ANOMALY":249.0869,"EPHEMERIS_TYPE":0,"CLASSIFICATION_TYPE":"U","NORAD_CAT_ID":54234,"ELEMENT_SET_NO":999,"REV_AT_EPOCH":17206,"BSTAR":8.1424e-5,"MEAN_MOTION_DOT":1.28e-6,"MEAN_MOTION_DDOT":0},{"OBJECT_NAME":"METEOSAT-12 (MTG-I1)","OBJECT_ID":"2022-170C","EPOCH":"2026-03-06T21:53:38.746464","MEAN_MOTION":1.00270067,"ECCENTRICITY":0.0001992,"INCLINATION":0.7035,"RA_OF_ASC_NODE":21.7653,"ARG_OF_PERICENTER":288.6085,"MEAN_ANOMALY":182.3468,"EPHEMERIS_TYPE":0,"CLASSIFICATION_TYPE":"U","NORAD_CAT_ID":54743,"ELEMENT_SET_NO":999,"REV_AT_EPOCH":1195,"BSTAR":0,"MEAN_MOTION_DOT":-1.1e-7,"MEAN_MOTION_DDOT":0},{"OBJECT_NAME":"TIANMU-1 03","OBJECT_ID":"2023-039A","EPOCH":"2026-03-07T03:47:02.660352","MEAN_MOTION":15.44080413,"ECCENTRICITY":0.0004072,"INCLINATION":97.5176,"RA_OF_ASC_NODE":236.3906,"ARG_OF_PERICENTER":108.5708,"MEAN_ANOMALY":251.5983,"EPHEMERIS_TYPE":0,"CLASSIFICATION_TYPE":"U","NORAD_CAT_ID":55973,"ELEMENT_SET_NO":999,"REV_AT_EPOCH":16507,"BSTAR":0.00052633,"MEAN_MOTION_DOT":0.00024012,"MEAN_MOTION_DDOT":0},{"OBJECT_NAME":"TIANMU-1 04","OBJECT_ID":"2023-039B","EPOCH":"2026-03-07T04:21:47.405088","MEAN_MOTION":15.44489305,"ECCENTRICITY":0.0004699,"INCLINATION":97.5109,"RA_OF_ASC_NODE":235.5765,"ARG_OF_PERICENTER":104.5369,"MEAN_ANOMALY":255.6401,"EPHEMERIS_TYPE":0,"CLASSIFICATION_TYPE":"U","NORAD_CAT_ID":55974,"ELEMENT_SET_NO":999,"REV_AT_EPOCH":16508,"BSTAR":0.00047689,"MEAN_MOTION_DOT":0.00022048,"MEAN_MOTION_DDOT":0},{"OBJECT_NAME":"TIANMU-1 05","OBJECT_ID":"2023-039C","EPOCH":"2026-03-07T04:46:30.828288","MEAN_MOTION":15.44022495,"ECCENTRICITY":0.0003786,"INCLINATION":97.5156,"RA_OF_ASC_NODE":236.0856,"ARG_OF_PERICENTER":125.2205,"MEAN_ANOMALY":234.9397,"EPHEMERIS_TYPE":0,"CLASSIFICATION_TYPE":"U","NORAD_CAT_ID":55975,"ELEMENT_SET_NO":999,"REV_AT_EPOCH":16506,"BSTAR":0.00048212,"MEAN_MOTION_DOT":0.00021938,"MEAN_MOTION_DDOT":0},{"OBJECT_NAME":"TIANMU-1 06","OBJECT_ID":"2023-039D","EPOCH":"2026-03-07T04:21:34.617024","MEAN_MOTION":15.44520471,"ECCENTRICITY":0.0004146,"INCLINATION":97.5167,"RA_OF_ASC_NODE":236.6058,"ARG_OF_PERICENTER":121.2171,"MEAN_ANOMALY":238.9484,"EPHEMERIS_TYPE":0,"CLASSIFICATION_TYPE":"U","NORAD_CAT_ID":55976,"ELEMENT_SET_NO":999,"REV_AT_EPOCH":16508,"BSTAR":0.00053696,"MEAN_MOTION_DOT":0.0002487,"MEAN_MOTION_DDOT":0},{"OBJECT_NAME":"FENGYUN 3G","OBJECT_ID":"2023-055A","EPOCH":"2026-03-07T04:34:55.545888","MEAN_MOTION":15.54431371,"ECCENTRICITY":0.0010743,"INCLINATION":49.9925,"RA_OF_ASC_NODE":151.8965,"ARG_OF_PERICENTER":1.7514,"MEAN_ANOMALY":358.3489,"EPHEMERIS_TYPE":0,"CLASSIFICATION_TYPE":"U","NORAD_CAT_ID":56232,"ELEMENT_SET_NO":999,"REV_AT_EPOCH":16415,"BSTAR":0.00059085,"MEAN_MOTION_DOT":0.00039413,"MEAN_MOTION_DDOT":0},{"OBJECT_NAME":"METEOR-M2 3","OBJECT_ID":"2023-091A","EPOCH":"2026-03-07T05:13:44.122656","MEAN_MOTION":14.24037328,"ECCENTRICITY":0.0005083,"INCLINATION":98.6219,"RA_OF_ASC_NODE":123.2238,"ARG_OF_PERICENTER":104.8277,"MEAN_ANOMALY":255.3465,"EPHEMERIS_TYPE":0,"CLASSIFICATION_TYPE":"U","NORAD_CAT_ID":57166,"ELEMENT_SET_NO":999,"REV_AT_EPOCH":14000,"BSTAR":2.1996e-5,"MEAN_MOTION_DOT":7.0e-8,"MEAN_MOTION_DDOT":0},{"OBJECT_NAME":"TIANMU-1 07","OBJECT_ID":"2023-101A","EPOCH":"2026-03-06T13:47:20.454720","MEAN_MOTION":15.29118809,"ECCENTRICITY":0.00046097,"INCLINATION":97.2728,"RA_OF_ASC_NODE":118.5929,"ARG_OF_PERICENTER":142.4105,"MEAN_ANOMALY":217.7458,"EPHEMERIS_TYPE":0,"CLASSIFICATION_TYPE":"U","NORAD_CAT_ID":57399,"ELEMENT_SET_NO":999,"REV_AT_EPOCH":14596,"BSTAR":0.00029794732,"MEAN_MOTION_DOT":8.352e-5,"MEAN_MOTION_DDOT":0},{"OBJECT_NAME":"TIANMU-1 08","OBJECT_ID":"2023-101B","EPOCH":"2026-03-07T00:03:25.475616","MEAN_MOTION":15.29204228,"ECCENTRICITY":0.0006381,"INCLINATION":97.2717,"RA_OF_ASC_NODE":118.7901,"ARG_OF_PERICENTER":134.2174,"MEAN_ANOMALY":225.9592,"EPHEMERIS_TYPE":0,"CLASSIFICATION_TYPE":"U","NORAD_CAT_ID":57400,"ELEMENT_SET_NO":999,"REV_AT_EPOCH":14602,"BSTAR":1.4775e-5,"MEAN_MOTION_DOT":3.46e-6,"MEAN_MOTION_DDOT":0},{"OBJECT_NAME":"TIANMU-1 09","OBJECT_ID":"2023-101C","EPOCH":"2026-03-07T04:19:38.074656","MEAN_MOTION":15.29024615,"ECCENTRICITY":0.0004685,"INCLINATION":97.2673,"RA_OF_ASC_NODE":118.441,"ARG_OF_PERICENTER":146.4083,"MEAN_ANOMALY":213.7456,"EPHEMERIS_TYPE":0,"CLASSIFICATION_TYPE":"U","NORAD_CAT_ID":57401,"ELEMENT_SET_NO":999,"REV_AT_EPOCH":14605,"BSTAR":0.00030367,"MEAN_MOTION_DOT":8.489e-5,"MEAN_MOTION_DDOT":0}]
